{"type": "FeatureCollection", "features": [ {"type": "Feature", "properties": {"norad_id": 31412, "name": "FENGYUN 1C DEB", "group": "fengyun-1c-debris", "lat": 24.171233514829208, "lon": 118.46357727842037, "alt_km": 918.353237528253, "timestamp": "2025-12-16T21:38:57.457169+00:00", "meta": {"OBJECT_NAME": "FENGYUN 1C DEB", "OBJECT_ID": "1999-025BSY", "EPOCH": "2025-12-14T19:31:01.164288", "MEAN_MOTION": 14.09854873, "ECCENTRICITY": 0.00835182, "INCLINATION": 98.5472, "RA_OF_ASC_NODE": 292.6091, "ARG_OF_PERICENTER": 329.7652, "MEAN_ANOMALY": 29.8714, "EPHEMERIS_TYPE": 0, "CLASSIFICATION_TYPE": "U", "NORAD_CAT_ID": 31412, "ELEMENT_SET_NO": 999, "REV_AT_EPOCH": 61021, "BSTAR": 0.0017478212, "MEAN_MOTION_DOT": 3.135e-05, "MEAN_MOTION_DDOT": 0}, "tle": {"line1": "1 31412U 99025BSY 25348.81320792  .00003135  00000+0  17478-2 0  9990", "line2": "2 31412  98.5472 292.6091 0083518 329.7652  29.8714 14.09854873610216"}}, "geometry": {"type": "Point", "coordinates": [118.46357727842037, 24.171233514829208]}}, {"type": "Feature", "properties": {"norad_id": 31415, "name": "FENGYUN 1C DEB", "group": "fengyun-1c-debris", "lat": -39.42499526528787, "lon": -48.57405960229305, "alt_km": 806.0106269286398, "timestamp": "2025-12-16T21:38:57.457179+00:00", "meta": {"OBJECT_NAME": "FENGYUN 1C DEB", "OBJECT_ID": "1999-025BTB", "EPOCH": "2025-12-14T14:26:42.789696", "MEAN_MOTION": 14.30617484, "ECCENTRICITY": 0.00641277, "INCLINATION": 99.6387, "RA_OF_ASC_NODE": 300.8477, "ARG_OF_PERICENTER": 69.4394, "MEAN_ANOMALY": 291.365, "EPHEMERIS_TYPE": 0, "CLASSIFICATION_TYPE": "U", "NORAD_CAT_ID": 31415, "ELEMENT_SET_NO": 999, "REV_AT_EPOCH": 62857, "BSTAR": 0.0013058291, "MEAN_MOTION_DOT": 3.436e-05, "MEAN_MOTION_DDOT": 0}, "tle": {"line1": "1 31415U 99025BTB 25348.60188414  .00003436  00000+0  13058-2 0  9997", "line2": "2 31415  99.6387 300.8477 0064127  69.4394 291.3650 14.30617484628574"}}, "geometry": {"type": "Point", "coordinates": [-48.57405960229305, -39.42499526528787]}}, {"type": "Feature", "properties": {"norad_id": 31416, "name": "FENGYUN 1C DEB", "group": "fengyun-1c-debris", "lat": 28.833841764550733, "lon": -133.5932978661182, "alt_km": 750.3160220941418, "timestamp": "2025-12-16T21:38:57.457191+00:00", "meta": {"OBJECT_NAME": "FENGYUN 1C DEB", "OBJECT_ID": "1999-025BTC", "EPOCH": "2025-12-15T23:16:12.713376", "MEAN_MOTION": 14.40679331, "ECCENTRICITY": 0.01330504, "INCLINATION": 99.0509, "RA_OF_ASC_NODE": 40.3861, "ARG_OF_PERICENTER": 241.4386, "MEAN_ANOMALY": 117.3356, "EPHEMERIS_TYPE": 0, "CLASSIFICATION_TYPE": "U", "NORAD_CAT_ID": 31416, "ELEMENT_SET_NO": 999, "REV_AT_EPOCH": 65566, "BSTAR": 0.00028672946, "MEAN_MOTION_DOT": 9.62e-06, "MEAN_MOTION_DDOT": 0}, "tle": {"line1": "1 31416U 99025BTC 25349.96959159  .00000962  00000+0  28673-3 0  9991", "line2": "2 31416  99.0509  40.3861 0133050 241.4386 117.3356 14.40679331655663"}}, "geometry": {"type": "Point", "coordinates": [-133.5932978661182, 28.833841764550733]}}, {"type": "Feature", "properties": {"norad_id": 31420, "name": "FENGYUN 1C DEB", "group": "fengyun-1c-debris", "lat": -0.6221434459295677, "lon": -111.54783644385314, "alt_km": 688.6370353114935, "timestamp": "2025-12-16T21:38:57.457203+00:00", "meta": {"OBJECT_NAME": "FENGYUN 1C DEB", "OBJECT_ID": "1999-025BTG", "EPOCH": "2025-12-12T16:07:19.593120", "MEAN_MOTION": 14.4081029, "ECCENTRICITY": 0.01357889, "INCLINATION": 97.5578, "RA_OF_ASC_NODE": 244.6278, "ARG_OF_PERICENTER": 328.3513, "MEAN_ANOMALY": 60.6144, "EPHEMERIS_TYPE": 0, "CLASSIFICATION_TYPE": "U", "NORAD_CAT_ID": 31420, "ELEMENT_SET_NO": 999, "REV_AT_EPOCH": 64993, "BSTAR": 0.0010850472, "MEAN_MOTION_DOT": 3.836e-05, "MEAN_MOTION_DDOT": 0}, "tle": {"line1": "1 31420U 99025BTG 25346.67175455  .00003836  00000+0  10850-2 0  9990", "line2": "2 31420  97.5578 244.6278 0135788 328.3513  60.6144 14.40810290649934"}}, "geometry": {"type": "Point", "coordinates": [-111.54783644385314, -0.6221434459295677]}}, {"type": "Feature", "properties": {"norad_id": 31422, "name": "FENGYUN 1C DEB", "group": "fengyun-1c-debris", "lat": 20.101361873481377, "lon": 170.97945773457607, "alt_km": 876.1988388148957, "timestamp": "2025-12-16T21:38:57.457213+00:00", "meta": {"OBJECT_NAME": "FENGYUN 1C DEB", "OBJECT_ID": "1999-025BTJ", "EPOCH": "2025-12-14T06:10:27.181920", "MEAN_MOTION": 14.09624109, "ECCENTRICITY": 0.003388, "INCLINATION": 98.7613, "RA_OF_ASC_NODE": 345.1705, "ARG_OF_PERICENTER": 296.6174, "MEAN_ANOMALY": 129.2856, "EPHEMERIS_TYPE": 0, "CLASSIFICATION_TYPE": "U", "NORAD_CAT_ID": 31422, "ELEMENT_SET_NO": 999, "REV_AT_EPOCH": 95683, "BSTAR": 0.00043847474, "MEAN_MOTION_DOT": 7.29e-06, "MEAN_MOTION_DDOT": 0}, "tle": {"line1": "1 31422U 99025BTJ 25348.25725905  .00000729  00000+0  43847-3 0  9990", "line2": "2 31422  98.7613 345.1705 0033880 296.6174 129.2856 14.09624109956830"}}, "geometry": {"type": "Point", "coordinates": [170.97945773457607, 20.101361873481377]}}, {"type": "Feature", "properties": {"norad_id": 31423, "name": "FENGYUN 1C DEB", "group": "fengyun-1c-debris", "lat": 63.74308876208108, "lon": 169.4468039826143, "alt_km": 798.787987464395, "timestamp": "2025-12-16T21:38:57.457223+00:00", "meta": {"OBJECT_NAME": "FENGYUN 1C DEB", "OBJECT_ID": "1999-025BTK", "EPOCH": "2025-12-15T09:40:13.935648", "MEAN_MOTION": 14.22973476, "ECCENTRICITY": 0.00362159, "INCLINATION": 98.5837, "RA_OF_ASC_NODE": 330.156, "ARG_OF_PERICENTER": 186.1739, "MEAN_ANOMALY": 173.8998, "EPHEMERIS_TYPE": 0, "CLASSIFICATION_TYPE": "U", "NORAD_CAT_ID": 31423, "ELEMENT_SET_NO": 999, "REV_AT_EPOCH": 97006, "BSTAR": 0.00015359645, "MEAN_MOTION_DOT": 3.05e-06, "MEAN_MOTION_DDOT": 0}, "tle": {"line1": "1 31423U 99025BTK 25349.40293907  .00000305  00000+0  15360-3 0  9990", "line2": "2 31423  98.5837 330.1560 0036215 186.1739 173.8998 14.22973476970067"}}, "geometry": {"type": "Point", "coordinates": [169.4468039826143, 63.74308876208108]}}, {"type": "Feature", "properties": {"norad_id": 31424, "name": "FENGYUN 1C DEB", "group": "fengyun-1c-debris", "lat": 13.74954429023036, "lon": 32.55598867834664, "alt_km": 852.9501066666753, "timestamp": "2025-12-16T21:38:57.457234+00:00", "meta": {"OBJECT_NAME": "FENGYUN 1C DEB", "OBJECT_ID": "1999-025BTL", "EPOCH": "2025-12-15T09:46:37.838496", "MEAN_MOTION": 14.08361564, "ECCENTRICITY": 0.0094527, "INCLINATION": 98.4812, "RA_OF_ASC_NODE": 33.2428, "ARG_OF_PERICENTER": 97.8675, "MEAN_ANOMALY": 263.3238, "EPHEMERIS_TYPE": 0, "CLASSIFICATION_TYPE": "U", "NORAD_CAT_ID": 31424, "ELEMENT_SET_NO": 999, "REV_AT_EPOCH": 63208, "BSTAR": 0.00029708146, "MEAN_MOTION_DOT": 4.9e-06, "MEAN_MOTION_DDOT": 0}, "tle": {"line1": "1 31424U 99025BTL 25349.40738239  .00000490  00000+0  29708-3 0  9999", "line2": "2 31424  98.4812  33.2428 0094527  97.8675 263.3238 14.08361564632083"}}, "geometry": {"type": "Point", "coordinates": [32.55598867834664, 13.74954429023036]}}, {"type": "Feature", "properties": {"norad_id": 31426, "name": "FENGYUN 1C DEB", "group": "fengyun-1c-debris", "lat": -67.87730552515991, "lon": 169.99964806174646, "alt_km": 1032.8823803085816, "timestamp": "2025-12-16T21:38:57.457244+00:00", "meta": {"OBJECT_NAME": "FENGYUN 1C DEB", "OBJECT_ID": "1999-025BTN", "EPOCH": "2025-12-16T05:34:38.178048", "MEAN_MOTION": 13.90100337, "ECCENTRICITY": 0.03246625, "INCLINATION": 98.5786, "RA_OF_ASC_NODE": 147.5838, "ARG_OF_PERICENTER": 176.436, "MEAN_ANOMALY": 1.2764, "EPHEMERIS_TYPE": 0, "CLASSIFICATION_TYPE": "U", "NORAD_CAT_ID": 31426, "ELEMENT_SET_NO": 999, "REV_AT_EPOCH": 93621, "BSTAR": 0.0015969626, "MEAN_MOTION_DOT": 2.98e-05, "MEAN_MOTION_DDOT": 0}, "tle": {"line1": "1 31426U 99025BTN 25350.23238632  .00002980  00000+0  15970-2 0  9997", "line2": "2 31426  98.5786 147.5838 0324662 176.4360   1.2764 13.90100337936215"}}, "geometry": {"type": "Point", "coordinates": [169.99964806174646, -67.87730552515991]}}, {"type": "Feature", "properties": {"norad_id": 31427, "name": "FENGYUN 1C DEB", "group": "fengyun-1c-debris", "lat": 10.195528515067263, "lon": -78.28801045506007, "alt_km": 720.2095398549227, "timestamp": "2025-12-16T21:38:57.457256+00:00", "meta": {"OBJECT_NAME": "FENGYUN 1C DEB", "OBJECT_ID": "1999-025BTP", "EPOCH": "2025-12-16T06:03:33.075360", "MEAN_MOTION": 14.58746998, "ECCENTRICITY": 0.00313769, "INCLINATION": 98.6704, "RA_OF_ASC_NODE": 99.4618, "ARG_OF_PERICENTER": 6.2618, "MEAN_ANOMALY": 353.8966, "EPHEMERIS_TYPE": 0, "CLASSIFICATION_TYPE": "U", "NORAD_CAT_ID": 31427, "ELEMENT_SET_NO": 999, "REV_AT_EPOCH": 96932, "BSTAR": 0.0016218051, "MEAN_MOTION_DOT": 7.579e-05, "MEAN_MOTION_DDOT": 0}, "tle": {"line1": "1 31427U 99025BTP 25350.25246615  .00007579  00000+0  16218-2 0  9995", "line2": "2 31427  98.6704  99.4618 0031376   6.2618 353.8966 14.58746998969323"}}, "geometry": {"type": "Point", "coordinates": [-78.28801045506007, 10.195528515067263]}}, {"type": "Feature", "properties": {"norad_id": 31428, "name": "FENGYUN 1C DEB", "group": "fengyun-1c-debris", "lat": 16.16632619607022, "lon": -40.0491734853794, "alt_km": 778.3460278378916, "timestamp": "2025-12-16T21:38:57.457268+00:00", "meta": {"OBJECT_NAME": "FENGYUN 1C DEB", "OBJECT_ID": "1999-025BTQ", "EPOCH": "2025-12-16T04:59:34.857312", "MEAN_MOTION": 14.42031326, "ECCENTRICITY": 0.00639941, "INCLINATION": 99.0383, "RA_OF_ASC_NODE": 321.8611, "ARG_OF_PERICENTER": 143.4886, "MEAN_ANOMALY": 232.8177, "EPHEMERIS_TYPE": 0, "CLASSIFICATION_TYPE": "U", "NORAD_CAT_ID": 31428, "ELEMENT_SET_NO": 999, "REV_AT_EPOCH": 97560, "BSTAR": 0.00053138219, "MEAN_MOTION_DOT": 1.738e-05, "MEAN_MOTION_DDOT": 0}, "tle": {"line1": "1 31428U 99025BTQ 25350.20804233  .00001738  00000+0  53138-3 0  9991", "line2": "2 31428  99.0383 321.8611 0063994 143.4886 232.8177 14.42031326975602"}}, "geometry": {"type": "Point", "coordinates": [-40.0491734853794, 16.16632619607022]}}]}